[{"OBJECT_NAME":"STARLINK-4731","OBJECT_ID":"2022-107D","EPOCH":"2026-03-09T17:32:19.271904","MEAN_MOTION":15.08824986,"ECCENTRICITY":0.00011328,"INCLINATION":53.2166,"RA_OF_ASC_NODE":243.6835,"ARG_OF_PERICENTER":88.701,"MEAN_ANOMALY":271.4112,"EPHEMERIS_TYPE":0,"CLASSIFICATION_TYPE":"U","NORAD_CAT_ID":53703,"ELEMENT_SET_NO":999,"REV_AT_EPOCH":19486,"BSTAR":-1.7272682e-5,"MEAN_MOTION_DOT":-5.63e-6,"MEAN_MOTION_DDOT":0},{"OBJECT_NAME":"FENGYUN 1C DEB","OBJECT_ID":"1999-025DNE","EPOCH":"2026-03-03T04:32:20.578848","MEAN_MOTION":15.05751159,"ECCENTRICITY":0.01321557,"INCLINATION":98.9662,"RA_OF_ASC_NODE":53.9178,"ARG_OF_PERICENTER":282.0758,"MEAN_ANOMALY":76.5683,"EPHEMERIS_TYPE":0,"CLASSIFICATION_TYPE":"U","NORAD_CAT_ID":35174,"ELEMENT_SET_NO":999,"REV_AT_EPOCH":91373,"BSTAR":0.0030573957,"MEAN_MOTION_DOT":0.00054187,"MEAN_MOTION_DDOT":0}]
